[
  {
    "COMMENT": "GENERATED VIA SPACETRACK.ORG API",
    "ORIGINATOR": "18 SPCS",
    "NORAD_CAT_ID": "33105",
    "OBJECT_NAME": "JASON 2",
    "OBJECT_TYPE": "PAYLOAD",
    "CLASSIFICATION_TYPE": "U",
    "INTLDES": "08032A",
    "EPOCH": "2023-05-13 14:02:33",
    "EPOCH_MICROSECONDS": "122112",
    "MEAN_MOTION": "12.87659028",
    "ECCENTRICITY": "0.0008119",
    "INCLINATION": "66.0389",
    "RA_OF_ASC_NODE": "268.1986",
    "ARG_OF_PERICENTER": "270.8608",
    "MEAN_ANOMALY": "164.5636",
    "EPHEMERIS_TYPE": "0",
    "ELEMENT_SET_NO": "999",
    "REV_AT_EPOCH": "69813",
    "BSTAR": "-0.000032829",
    "MEAN_MOTION_DOT": "-0.00000071",
    "MEAN_MOTION_DDOT": "0",
    "FILE": "3906915",
    "TLE_LINE0": "0 JASON 2",
    "TLE_LINE1": "1 33105U 08032A   23133.58510558 -.00000071  00000-0 -32829-4 0  9992",
    "TLE_LINE2": "2 33105  66.0389 268.1986 0008119 270.8608 164.5636 12.87659028698132",
    "OBJECT_ID": "2008-032A",
    "OBJECT_NUMBER": "33105",
    "SEMIMAJOR_AXIS": "7688.966",
    "PERIOD": "111.831",
    "APOGEE": "1317.073",
    "PERIGEE": "1304.588",
    "DECAYED": "0"
  },
  {
    "COMMENT": "GENERATED VIA SPACETRACK.ORG API",
    "ORIGINATOR": "18 SPCS",
    "NORAD_CAT_ID": "33105",
    "OBJECT_NAME": "JASON 2",
    "OBJECT_TYPE": "PAYLOAD",
    "CLASSIFICATION_TYPE": "U",
    "INTLDES": "08032A",
    "EPOCH": "2023-05-13 17:53:41",
    "EPOCH_MICROSECONDS": "910144",
    "MEAN_MOTION": "12.87659028",
    "ECCENTRICITY": "0.0008115",
    "INCLINATION": "66.0389",
    "RA_OF_ASC_NODE": "267.8611",
    "ARG_OF_PERICENTER": "270.8648",
    "MEAN_ANOMALY": "188.5807",
    "EPHEMERIS_TYPE": "0",
    "ELEMENT_SET_NO": "999",
    "REV_AT_EPOCH": "69815",
    "BSTAR": "-0.000027936",
    "MEAN_MOTION_DOT": "-0.00000069",
    "MEAN_MOTION_DDOT": "0",
    "FILE": "3907148",
    "TLE_LINE0": "0 JASON 2",
    "TLE_LINE1": "1 33105U 08032A   23133.74562396 -.00000069  00000-0 -27936-4 0  9997",
    "TLE_LINE2": "2 33105  66.0389 267.8611 0008115 270.8648 188.5807 12.87659028698151",
    "OBJECT_ID": "2008-032A",
    "OBJECT_NUMBER": "33105",
    "SEMIMAJOR_AXIS": "7688.966",
    "PERIOD": "111.831",
    "APOGEE": "1317.070",
    "PERIGEE": "1304.591",
    "DECAYED": "0"
  },
  {
    "COMMENT": "GENERATED VIA SPACETRACK.ORG API",
    "ORIGINATOR": "18 SPCS",
    "NORAD_CAT_ID": "33105",
    "OBJECT_NAME": "JASON 2",
    "OBJECT_TYPE": "PAYLOAD",
    "CLASSIFICATION_TYPE": "U",
    "INTLDES": "08032A",
    "EPOCH": "2023-05-14 03:35:36",
    "EPOCH_MICROSECONDS": "595104",
    "MEAN_MOTION": "12.87659024",
    "ECCENTRICITY": "0.0008121",
    "INCLINATION": "66.0389",
    "RA_OF_ASC_NODE": "267.0114",
    "ARG_OF_PERICENTER": "270.8477",
    "MEAN_ANOMALY": "261.6716",
    "EPHEMERIS_TYPE": "0",
    "ELEMENT_SET_NO": "999",
    "REV_AT_EPOCH": "69829",
    "BSTAR": "-0.000027673",
    "MEAN_MOTION_DOT": "-0.00000069",
    "MEAN_MOTION_DDOT": "0",
    "FILE": "3907212",
    "TLE_LINE0": "0 JASON 2",
    "TLE_LINE1": "1 33105U 08032A   23134.14972911 -.00000069  00000-0 -27673-4 0  9998",
    "TLE_LINE2": "2 33105  66.0389 267.0114 0008121 270.8477 261.6716 12.87659024698291",
    "OBJECT_ID": "2008-032A",
    "OBJECT_NUMBER": "33105",
    "SEMIMAJOR_AXIS": "7688.966",
    "PERIOD": "111.831",
    "APOGEE": "1317.075",
    "PERIGEE": "1304.587",
    "DECAYED": "0"
  },
  {
    "COMMENT": "GENERATED VIA SPACETRACK.ORG API",
    "ORIGINATOR": "18 SPCS",
    "NORAD_CAT_ID": "33105",
    "OBJECT_NAME": "JASON 2",
    "OBJECT_TYPE": "PAYLOAD",
    "CLASSIFICATION_TYPE": "U",
    "INTLDES": "08032A",
    "EPOCH": "2023-05-14 14:17:20",
    "EPOCH_MICROSECONDS": "487264",
    "MEAN_MOTION": "12.87659035",
    "ECCENTRICITY": "0.0008115",
    "INCLINATION": "66.039",
    "RA_OF_ASC_NODE": "266.0744",
    "ARG_OF_PERICENTER": "270.8531",
    "MEAN_ANOMALY": "167.2908",
    "EPHEMERIS_TYPE": "0",
    "ELEMENT_SET_NO": "999",
    "REV_AT_EPOCH": "69826",
    "BSTAR": "-0.000011453",
    "MEAN_MOTION_DOT": "-0.00000065",
    "MEAN_MOTION_DDOT": "0",
    "FILE": "3907744",
    "TLE_LINE0": "0 JASON 2",
    "TLE_LINE1": "1 33105U 08032A   23134.59537601 -.00000065  00000-0 -11453-4 0  9995",
    "TLE_LINE2": "2 33105  66.0390 266.0744 0008115 270.8531 167.2908 12.87659035698268",
    "OBJECT_ID": "2008-032A",
    "OBJECT_NUMBER": "33105",
    "SEMIMAJOR_AXIS": "7688.966",
    "PERIOD": "111.831",
    "APOGEE": "1317.070",
    "PERIGEE": "1304.591",
    "DECAYED": "0"
  },
  {
    "COMMENT": "GENERATED VIA SPACETRACK.ORG API",
    "ORIGINATOR": "18 SPCS",
    "NORAD_CAT_ID": "33105",
    "OBJECT_NAME": "JASON 2",
    "OBJECT_TYPE": "PAYLOAD",
    "CLASSIFICATION_TYPE": "U",
    "INTLDES": "08032A",
    "EPOCH": "2023-05-14 18:08:42",
    "EPOCH_MICROSECONDS": "201600",
    "MEAN_MOTION": "12.87659036",
    "ECCENTRICITY": "0.000812",
    "INCLINATION": "66.039",
    "RA_OF_ASC_NODE": "265.7366",
    "ARG_OF_PERICENTER": "270.8629",
    "MEAN_ANOMALY": "191.9956",
    "EPHEMERIS_TYPE": "0",
    "ELEMENT_SET_NO": "999",
    "REV_AT_EPOCH": "69828",
    "BSTAR": "-0.0000069792",
    "MEAN_MOTION_DOT": "-0.00000064",
    "MEAN_MOTION_DDOT": "0",
    "FILE": "3908005",
    "TLE_LINE0": "0 JASON 2",
    "TLE_LINE1": "1 33105U 08032A   23134.75604400 -.00000064  00000-0 -69792-5 0  9994",
    "TLE_LINE2": "2 33105  66.0390 265.7366 0008120 270.8629 191.9956 12.87659036698288",
    "OBJECT_ID": "2008-032A",
    "OBJECT_NUMBER": "33105",
    "SEMIMAJOR_AXIS": "7688.966",
    "PERIOD": "111.831",
    "APOGEE": "1317.074",
    "PERIGEE": "1304.587",
    "DECAYED": "0"
  },
  {
    "COMMENT": "GENERATED VIA SPACETRACK.ORG API",
    "ORIGINATOR": "18 SPCS",
    "NORAD_CAT_ID": "33105",
    "OBJECT_NAME": "JASON 2",
    "OBJECT_TYPE": "PAYLOAD",
    "CLASSIFICATION_TYPE": "U",
    "INTLDES": "08032A",
    "EPOCH": "2023-05-15 12:37:12",
    "EPOCH_MICROSECONDS": "512928",
    "MEAN_MOTION": "12.87659024",
    "ECCENTRICITY": "0.0008114",
    "INCLINATION": "66.0391",
    "RA_OF_ASC_NODE": "264.118",
    "ARG_OF_PERICENTER": "270.8748",
    "MEAN_ANOMALY": "160.0732",
    "EPHEMERIS_TYPE": "0",
    "ELEMENT_SET_NO": "999",
    "REV_AT_EPOCH": "69838",
    "BSTAR": "-0.000012459",
    "MEAN_MOTION_DOT": "-0.00000065",
    "MEAN_MOTION_DDOT": "0",
    "FILE": "3908681",
    "TLE_LINE0": "0 JASON 2",
    "TLE_LINE1": "1 33105U 08032A   23135.52583927 -.00000065  00000-0 -12459-4 0  9998",
    "TLE_LINE2": "2 33105  66.0391 264.1180 0008114 270.8748 160.0732 12.87659024698388",
    "OBJECT_ID": "2008-032A",
    "OBJECT_NUMBER": "33105",
    "SEMIMAJOR_AXIS": "7688.966",
    "PERIOD": "111.831",
    "APOGEE": "1317.070",
    "PERIGEE": "1304.592",
    "DECAYED": "0"
  },
  {
    "COMMENT": "GENERATED VIA SPACETRACK.ORG API",
    "ORIGINATOR": "18 SPCS",
    "NORAD_CAT_ID": "33105",
    "OBJECT_NAME": "JASON 2",
    "OBJECT_TYPE": "PAYLOAD",
    "CLASSIFICATION_TYPE": "U",
    "INTLDES": "08032A",
    "EPOCH": "2023-05-15 16:03:05",
    "EPOCH_MICROSECONDS": "889024",
    "MEAN_MOTION": "12.87659034",
    "ECCENTRICITY": "0.0008124",
    "INCLINATION": "66.0391",
    "RA_OF_ASC_NODE": "263.8173",
    "ARG_OF_PERICENTER": "270.8042",
    "MEAN_ANOMALY": "102.8676",
    "EPHEMERIS_TYPE": "0",
    "ELEMENT_SET_NO": "999",
    "REV_AT_EPOCH": "69840",
    "BSTAR": "-0.0000069083",
    "MEAN_MOTION_DOT": "-0.00000064",
    "MEAN_MOTION_DDOT": "0",
    "FILE": "3908892",
    "TLE_LINE0": "0 JASON 2",
    "TLE_LINE1": "1 33105U 08032A   23135.66881816 -.00000064  00000-0 -69083-5 0  9996",
    "TLE_LINE2": "2 33105  66.0391 263.8173 0008124 270.8042 102.8676 12.87659034698409",
    "OBJECT_ID": "2008-032A",
    "OBJECT_NUMBER": "33105",
    "SEMIMAJOR_AXIS": "7688.966",
    "PERIOD": "111.831",
    "APOGEE": "1317.077",
    "PERIGEE": "1304.584",
    "DECAYED": "0"
  },
  {
    "COMMENT": "GENERATED VIA SPACETRACK.ORG API",
    "ORIGINATOR": "18 SPCS",
    "NORAD_CAT_ID": "33105",
    "OBJECT_NAME": "JASON 2",
    "OBJECT_TYPE": "PAYLOAD",
    "CLASSIFICATION_TYPE": "U",
    "INTLDES": "08032A",
    "EPOCH": "2023-05-16 12:51:40",
    "EPOCH_MICROSECONDS": "605696",
    "MEAN_MOTION": "12.87659088",
    "ECCENTRICITY": "0.0008135",
    "INCLINATION": "66.0403",
    "RA_OF_ASC_NODE": "261.9939",
    "ARG_OF_PERICENTER": "270.7321",
    "MEAN_ANOMALY": "161.9031",
    "EPHEMERIS_TYPE": "0",
    "ELEMENT_SET_NO": "999",
    "REV_AT_EPOCH": "69860",
    "BSTAR": "-0.000087378",
    "MEAN_MOTION_DOT": "-0.00000084",
    "MEAN_MOTION_DDOT": "0",
    "FILE": "3909219",
    "TLE_LINE0": "0 JASON 2",
    "TLE_LINE1": "1 33105U 08032A   23136.53588664 -.00000084  00000-0 -87378-4 0  9996",
    "TLE_LINE2": "2 33105  66.0403 261.9939 0008135 270.7321 161.9031 12.87659088698605",
    "OBJECT_ID": "2008-032A",
    "OBJECT_NUMBER": "33105",
    "SEMIMAJOR_AXIS": "7688.965",
    "PERIOD": "111.831",
    "APOGEE": "1317.085",
    "PERIGEE": "1304.575",
    "DECAYED": "0"
  }
]